{
  "links" : {
    "next" : "https://api.nasa.gov/neo/rest/v1/feed?start_date=2001-02-16&end_date=2001-02-16&detailed=true&api_key=t0TVs3DtDT2H8Oy2Zy8m2eVrNsAVKAexjcZXUckd",
    "prev" : "https://api.nasa.gov/neo/rest/v1/feed?start_date=2001-02-14&end_date=2001-02-14&detailed=true&api_key=t0TVs3DtDT2H8Oy2Zy8m2eVrNsAVKAexjcZXUckd",
    "self" : "https://api.nasa.gov/neo/rest/v1/feed?start_date=2001-02-15&end_date=2001-02-15&detailed=true&api_key=t0TVs3DtDT2H8Oy2Zy8m2eVrNsAVKAexjcZXUckd"
  },
  "element_count" : 13,
  "near_earth_objects" : {
    "2001-02-15" : [ {
      "links" : {
        "self" : "https://api.nasa.gov/neo/rest/v1/neo/3724393?api_key=t0TVs3DtDT2H8Oy2Zy8m2eVrNsAVKAexjcZXUckd"
      },
      "neo_reference_id" : "3724393",
      "name" : "(2015 OD22)",
      "nasa_jpl_url" : "http://ssd.jpl.nasa.gov/sbdb.cgi?sstr=3724393",
      "absolute_magnitude_h" : 21.1,
      "estimated_diameter" : {
        "kilometers" : {
          "estimated_diameter_min" : 0.160160338,
          "estimated_diameter_max" : 0.358129403
        },
        "meters" : {
          "estimated_diameter_min" : 160.1603379786,
          "estimated_diameter_max" : 358.1294030194
        },
        "miles" : {
          "estimated_diameter_min" : 0.0995189894,
          "estimated_diameter_max" : 0.2225312253
        },
        "feet" : {
          "estimated_diameter_min" : 525.4604432536,
          "estimated_diameter_max" : 1174.9652706022
        }
      },
      "is_potentially_hazardous_asteroid" : false,
      "close_approach_data" : [ {
        "close_approach_date" : "2001-02-15",
        "epoch_date_close_approach" : 982224000000,
        "relative_velocity" : {
          "kilometers_per_second" : "23.6069967722",
          "kilometers_per_hour" : "84985.1883800323",
          "miles_per_hour" : "52806.491079804"
        },
        "miss_distance" : {
          "astronomical" : "0.3425804596",
          "lunar" : "133.2638092041",
          "kilometers" : "51249308",
          "miles" : "31844844"
        },
        "orbiting_body" : "Earth"
      } ],
      "orbital_data" : {
        "orbit_id" : "10",
        "orbit_determination_date" : "2017-04-06 08:32:42",
        "orbit_uncertainty" : "6",
        "minimum_orbit_intersection" : ".253379",
        "jupiter_tisserand_invariant" : "4.975",
        "epoch_osculation" : "2458000.5",
        "eccentricity" : ".5454399042710297",
        "semi_major_axis" : "1.220462823526119",
        "inclination" : "28.73194679184622",
        "ascending_node_longitude" : "300.5166834623018",
        "orbital_period" : "492.4762137872536",
        "perihelion_distance" : ".554773697895682",
        "perihelion_argument" : "141.9999860926437",
        "aphelion_distance" : "1.886151949156556",
        "perihelion_time" : "2457838.017822901969",
        "mean_anomaly" : "118.7744344147351",
        "mean_motion" : ".7309997720123749",
        "equinox" : "J2000"
      }
    }, {
      "links" : {
        "self" : "https://api.nasa.gov/neo/rest/v1/neo/2467352?api_key=t0TVs3DtDT2H8Oy2Zy8m2eVrNsAVKAexjcZXUckd"
      },
      "neo_reference_id" : "2467352",
      "name" : "467352 (2003 KZ18)",
      "nasa_jpl_url" : "http://ssd.jpl.nasa.gov/sbdb.cgi?sstr=2467352",
      "absolute_magnitude_h" : 21.3,
      "estimated_diameter" : {
        "kilometers" : {
          "estimated_diameter_min" : 0.1460679643,
          "estimated_diameter_max" : 0.3266178974
        },
        "meters" : {
          "estimated_diameter_min" : 146.0679642714,
          "estimated_diameter_max" : 326.6178974458
        },
        "miles" : {
          "estimated_diameter_min" : 0.090762397,
          "estimated_diameter_max" : 0.2029508896
        },
        "feet" : {
          "estimated_diameter_min" : 479.2256199,
          "estimated_diameter_max" : 1071.581062656
        }
      },
      "is_potentially_hazardous_asteroid" : false,
      "close_approach_data" : [ {
        "close_approach_date" : "2001-02-15",
        "epoch_date_close_approach" : 982224000000,
        "relative_velocity" : {
          "kilometers_per_second" : "17.1099813867",
          "kilometers_per_hour" : "61595.932992098",
          "miles_per_hour" : "38273.3173638956"
        },
        "miss_distance" : {
          "astronomical" : "0.4217018919",
          "lunar" : "164.0420379639",
          "kilometers" : "63085704",
          "miles" : "39199640"
        },
        "orbiting_body" : "Earth"
      } ],
      "orbital_data" : {
        "orbit_id" : "38",
        "orbit_determination_date" : "2017-04-06 09:19:26",
        "orbit_uncertainty" : "0",
        "minimum_orbit_intersection" : ".159331",
        "jupiter_tisserand_invariant" : "6.222",
        "epoch_osculation" : "2458000.5",
        "eccentricity" : ".3306227599692891",
        "semi_major_axis" : ".9487013434463354",
        "inclination" : "23.89932941585244",
        "ascending_node_longitude" : "249.9855551551862",
        "orbital_period" : "337.5147058667853",
        "perihelion_distance" : ".6350390868895355",
        "perihelion_argument" : "154.606472342588",
        "aphelion_distance" : "1.262363600003135",
        "perihelion_time" : "2457981.510822181740",
        "mean_anomaly" : "20.25424046936739",
        "mean_motion" : "1.066620190890555",
        "equinox" : "J2000"
      }
    }, {
      "links" : {
        "self" : "https://api.nasa.gov/neo/rest/v1/neo/2474223?api_key=t0TVs3DtDT2H8Oy2Zy8m2eVrNsAVKAexjcZXUckd"
      },
      "neo_reference_id" : "2474223",
      "name" : "474223 (2001 CC32)",
      "nasa_jpl_url" : "http://ssd.jpl.nasa.gov/sbdb.cgi?sstr=2474223",
      "absolute_magnitude_h" : 18.9,
      "estimated_diameter" : {
        "kilometers" : {
          "estimated_diameter_min" : 0.4411182,
          "estimated_diameter_max" : 0.9863702813
        },
        "meters" : {
          "estimated_diameter_min" : 441.1181999969,
          "estimated_diameter_max" : 986.3702813054
        },
        "miles" : {
          "estimated_diameter_min" : 0.2740980571,
          "estimated_diameter_max" : 0.6129018881
        },
        "feet" : {
          "estimated_diameter_min" : 1447.2382352778,
          "estimated_diameter_max" : 3236.1230737181
        }
      },
      "is_potentially_hazardous_asteroid" : false,
      "close_approach_data" : [ {
        "close_approach_date" : "2001-02-15",
        "epoch_date_close_approach" : 982224000000,
        "relative_velocity" : {
          "kilometers_per_second" : "20.3376518833",
          "kilometers_per_hour" : "73215.5467800125",
          "miles_per_hour" : "45493.2934978361"
        },
        "miss_distance" : {
          "astronomical" : "0.3319007832",
          "lunar" : "129.1094055176",
          "kilometers" : "49651648",
          "miles" : "30852104"
        },
        "orbiting_body" : "Earth"
      } ],
      "orbital_data" : {
        "orbit_id" : "32",
        "orbit_determination_date" : "2017-04-06 09:19:09",
        "orbit_uncertainty" : "1",
        "minimum_orbit_intersection" : ".284237",
        "jupiter_tisserand_invariant" : "3.973",
        "epoch_osculation" : "2458000.5",
        "eccentricity" : ".3476193372860359",
        "semi_major_axis" : "1.643634236677979",
        "inclination" : "39.97311983564966",
        "ascending_node_longitude" : "318.2390635890371",
        "orbital_period" : "769.6728998502335",
        "perihelion_distance" : "1.07227519258334",
        "perihelion_argument" : "251.9630641429668",
        "aphelion_distance" : "2.214993280772617",
        "perihelion_time" : "2458190.417664906233",
        "mean_anomaly" : "271.1695898614232",
        "mean_motion" : ".4677311622509386",
        "equinox" : "J2000"
      }
    } ]
  }
}